{"type": "FeatureCollection", "features": [ {"type": "Feature", "properties": {"norad_id": 66589, "name": "STARLINK-35447", "group": "last-30-days", "lat": 30.664099693470636, "lon": -21.242630617150983, "alt_km": 411.59142327073187, "timestamp": "2025-12-11T18:59:44.810820+00:00", "meta": {"OBJECT_NAME": "STARLINK-35447", "OBJECT_ID": "2025-270B", "EPOCH": "2025-12-11T06:00:02.999808", "MEAN_MOTION": 15.50672257, "ECCENTRICITY": 0.00021338, "INCLINATION": 42.9998, "RA_OF_ASC_NODE": 201.4399, "ARG_OF_PERICENTER": 263.8826, "MEAN_ANOMALY": 81.6158, "EPHEMERIS_TYPE": 0, "CLASSIFICATION_TYPE": "U", "NORAD_CAT_ID": 66589, "ELEMENT_SET_NO": 999, "REV_AT_EPOCH": 426, "BSTAR": -0.0035398873, "MEAN_MOTION_DOT": -0.00203403, "MEAN_MOTION_DDOT": 0}, "tle": {"line1": "1 66589U 25270B   25345.25003472 -.00203403  00000+0 -35399-2 0  9996", "line2": "2 66589  42.9998 201.4399 0002133 263.8826  81.6158 15.50672257  4260"}}, "geometry": {"type": "Point", "coordinates": [-21.242630617150983, 30.664099693470636]}}, {"type": "Feature", "properties": {"norad_id": 66590, "name": "STARLINK-35429", "group": "last-30-days", "lat": 31.660854783598786, "lon": -23.15764699363709, "alt_km": 411.4222670164563, "timestamp": "2025-12-11T18:59:44.810833+00:00", "meta": {"OBJECT_NAME": "STARLINK-35429", "OBJECT_ID": "2025-270C", "EPOCH": "2025-12-11T06:00:02.999808", "MEAN_MOTION": 15.50671936, "ECCENTRICITY": 0.00021479, "INCLINATION": 42.9999, "RA_OF_ASC_NODE": 201.4453, "ARG_OF_PERICENTER": 261.3718, "MEAN_ANOMALY": 82.2063, "EPHEMERIS_TYPE": 0, "CLASSIFICATION_TYPE": "U", "NORAD_CAT_ID": 66590, "ELEMENT_SET_NO": 999, "REV_AT_EPOCH": 426, "BSTAR": -0.003515855, "MEAN_MOTION_DOT": -0.00202056, "MEAN_MOTION_DDOT": 0}, "tle": {"line1": "1 66590U 25270C   25345.25003472 -.00202056  00000+0 -35159-2 0  9995", "line2": "2 66590  42.9999 201.4453 0002147 261.3718  82.2063 15.50671936  4267"}}, "geometry": {"type": "Point", "coordinates": [-23.15764699363709, 31.660854783598786]}}, {"type": "Feature", "properties": {"norad_id": 66591, "name": "STARLINK-36058", "group": "last-30-days", "lat": 29.642014536236463, "lon": -19.370047877957077, "alt_km": 411.64803993301484, "timestamp": "2025-12-11T18:59:44.810843+00:00", "meta": {"OBJECT_NAME": "STARLINK-36058", "OBJECT_ID": "2025-270D", "EPOCH": "2025-12-11T06:00:02.999808", "MEAN_MOTION": 15.50660842, "ECCENTRICITY": 0.00020411, "INCLINATION": 43, "RA_OF_ASC_NODE": 201.4355, "ARG_OF_PERICENTER": 264.2512, "MEAN_ANOMALY": 83.162, "EPHEMERIS_TYPE": 0, "CLASSIFICATION_TYPE": "U", "NORAD_CAT_ID": 66591, "ELEMENT_SET_NO": 999, "REV_AT_EPOCH": 416, "BSTAR": -0.003167954, "MEAN_MOTION_DOT": -0.00182472, "MEAN_MOTION_DDOT": 0}, "tle": {"line1": "1 66591U 25270D   25345.25003472 -.00182472  00000+0 -31680-2 0  9990", "line2": "2 66591  43.0000 201.4355 0002041 264.2512  83.1620 15.50660842  4163"}}, "geometry": {"type": "Point", "coordinates": [-19.370047877957077, 29.642014536236463]}}, {"type": "Feature", "properties": {"norad_id": 66592, "name": "STARLINK-36066", "group": "last-30-days", "lat": 28.592860890099914, "lon": -17.53505660206301, "alt_km": 411.6955689341012, "timestamp": "2025-12-11T18:59:44.810853+00:00", "meta": {"OBJECT_NAME": "STARLINK-36066", "OBJECT_ID": "2025-270E", "EPOCH": "2025-12-11T06:00:02.999808", "MEAN_MOTION": 15.50656079, "ECCENTRICITY": 0.00020354, "INCLINATION": 42.9998, "RA_OF_ASC_NODE": 201.4303, "ARG_OF_PERICENTER": 260.2523, "MEAN_ANOMALY": 89.0815, "EPHEMERIS_TYPE": 0, "CLASSIFICATION_TYPE": "U", "NORAD_CAT_ID": 66592, "ELEMENT_SET_NO": 999, "REV_AT_EPOCH": 406, "BSTAR": -0.0030418946, "MEAN_MOTION_DOT": -0.00175352, "MEAN_MOTION_DDOT": 0}, "tle": {"line1": "1 66592U 25270E   25345.25003472 -.00175352  00000+0 -30419-2 0  9999", "line2": "2 66592  42.9998 201.4303 0002035 260.2523  89.0815 15.50656079  4069"}}, "geometry": {"type": "Point", "coordinates": [-17.53505660206301, 28.592860890099914]}}, {"type": "Feature", "properties": {"norad_id": 66593, "name": "STARLINK-36031", "group": "last-30-days", "lat": 27.509759415137957, "lon": -15.72058316458802, "alt_km": 411.48307351298354, "timestamp": "2025-12-11T18:59:44.810864+00:00", "meta": {"OBJECT_NAME": "STARLINK-36031", "OBJECT_ID": "2025-270F", "EPOCH": "2025-12-11T06:00:02.999808", "MEAN_MOTION": 15.50690941, "ECCENTRICITY": 0.00018649, "INCLINATION": 42.9998, "RA_OF_ASC_NODE": 201.4254, "ARG_OF_PERICENTER": 249.2244, "MEAN_ANOMALY": 101.9892, "EPHEMERIS_TYPE": 0, "CLASSIFICATION_TYPE": "U", "NORAD_CAT_ID": 66593, "ELEMENT_SET_NO": 999, "REV_AT_EPOCH": 416, "BSTAR": -0.0032320646, "MEAN_MOTION_DOT": -0.00186264, "MEAN_MOTION_DDOT": 0}, "tle": {"line1": "1 66593U 25270F   25345.25003472 -.00186264  00000+0 -32321-2 0  9998", "line2": "2 66593  42.9998 201.4254 0001864 249.2244 101.9892 15.50690941  4167"}}, "geometry": {"type": "Point", "coordinates": [-15.72058316458802, 27.509759415137957]}}, {"type": "Feature", "properties": {"norad_id": 66594, "name": "STARLINK-36032", "group": "last-30-days", "lat": 26.42481163258894, "lon": -13.974704290861025, "alt_km": 412.060953143, "timestamp": "2025-12-11T18:59:44.810874+00:00", "meta": {"OBJECT_NAME": "STARLINK-36032", "OBJECT_ID": "2025-270G", "EPOCH": "2025-12-11T06:00:02.999808", "MEAN_MOTION": 15.50662973, "ECCENTRICITY": 0.00021212, "INCLINATION": 43, "RA_OF_ASC_NODE": 201.421, "ARG_OF_PERICENTER": 262.343, "MEAN_ANOMALY": 90.8223, "EPHEMERIS_TYPE": 0, "CLASSIFICATION_TYPE": "U", "NORAD_CAT_ID": 66594, "ELEMENT_SET_NO": 999, "REV_AT_EPOCH": 389, "BSTAR": -0.0032152416, "MEAN_MOTION_DOT": -0.00185144, "MEAN_MOTION_DDOT": 0}, "tle": {"line1": "1 66594U 25270G   25345.25003472 -.00185144  00000+0 -32152-2 0  9997", "line2": "2 66594  43.0000 201.4210 0002121 262.3430  90.8223 15.50662973  3893"}}, "geometry": {"type": "Point", "coordinates": [-13.974704290861025, 26.42481163258894]}}, {"type": "Feature", "properties": {"norad_id": 66595, "name": "STARLINK-35711", "group": "last-30-days", "lat": 25.270156336271324, "lon": -12.189231913086816, "alt_km": 412.12787336515703, "timestamp": "2025-12-11T18:59:44.810886+00:00", "meta": {"OBJECT_NAME": "STARLINK-35711", "OBJECT_ID": "2025-270H", "EPOCH": "2025-12-11T06:00:02.999808", "MEAN_MOTION": 15.50935924, "ECCENTRICITY": 0.00014773, "INCLINATION": 42.9997, "RA_OF_ASC_NODE": 201.4159, "ARG_OF_PERICENTER": 250.4337, "MEAN_ANOMALY": 104.5649, "EPHEMERIS_TYPE": 0, "CLASSIFICATION_TYPE": "U", "NORAD_CAT_ID": 66595, "ELEMENT_SET_NO": 999, "REV_AT_EPOCH": 426, "BSTAR": -0.0094465182, "MEAN_MOTION_DOT": -0.00525542, "MEAN_MOTION_DDOT": 0}, "tle": {"line1": "1 66595U 25270H   25345.25003472 -.00525542  00000+0 -94465-2 0  9993", "line2": "2 66595  42.9997 201.4159 0001477 250.4337 104.5649 15.50935924  4262"}}, "geometry": {"type": "Point", "coordinates": [-12.189231913086816, 25.270156336271324]}}, {"type": "Feature", "properties": {"norad_id": 66596, "name": "STARLINK-35811", "group": "last-30-days", "lat": 24.504797884317142, "lon": -11.04222849006554, "alt_km": 414.85057468667674, "timestamp": "2025-12-11T18:59:44.810896+00:00", "meta": {"OBJECT_NAME": "STARLINK-35811", "OBJECT_ID": "2025-270J", "EPOCH": "2025-12-11T06:00:02.999808", "MEAN_MOTION": 15.50947308, "ECCENTRICITY": 0.00024145, "INCLINATION": 42.9997, "RA_OF_ASC_NODE": 201.4103, "ARG_OF_PERICENTER": 265.2211, "MEAN_ANOMALY": 91.7277, "EPHEMERIS_TYPE": 0, "CLASSIFICATION_TYPE": "U", "NORAD_CAT_ID": 66596, "ELEMENT_SET_NO": 999, "REV_AT_EPOCH": 426, "BSTAR": -0.020375291, "MEAN_MOTION_DOT": -0.01096135, "MEAN_MOTION_DDOT": 0}, "tle": {"line1": "1 66596U 25270J   25345.25003472 -.01096135  00000+0 -20375-1 0  9994", "line2": "2 66596  42.9997 201.4103 0002414 265.2211  91.7277 15.50947308  4262"}}, "geometry": {"type": "Point", "coordinates": [-11.04222849006554, 24.504797884317142]}}, {"type": "Feature", "properties": {"norad_id": 66597, "name": "STARLINK-35820", "group": "last-30-days", "lat": 23.01756982989712, "lon": -8.884515904466321, "alt_km": 412.4033353893392, "timestamp": "2025-12-11T18:59:44.810906+00:00", "meta": {"OBJECT_NAME": "STARLINK-35820", "OBJECT_ID": "2025-270K", "EPOCH": "2025-12-11T06:00:02.999808", "MEAN_MOTION": 15.50662242, "ECCENTRICITY": 0.00020003, "INCLINATION": 43, "RA_OF_ASC_NODE": 201.4066, "ARG_OF_PERICENTER": 259.9651, "MEAN_ANOMALY": 98.9515, "EPHEMERIS_TYPE": 0, "CLASSIFICATION_TYPE": "U", "NORAD_CAT_ID": 66597, "ELEMENT_SET_NO": 999, "REV_AT_EPOCH": 426, "BSTAR": -0.0032435492, "MEAN_MOTION_DOT": -0.00186726, "MEAN_MOTION_DDOT": 0}, "tle": {"line1": "1 66597U 25270K   25345.25003472 -.00186726  00000+0 -32435-2 0  9991", "line2": "2 66597  43.0000 201.4066 0002000 259.9651  98.9515 15.50662242  4262"}}, "geometry": {"type": "Point", "coordinates": [-8.884515904466321, 23.01756982989712]}}, {"type": "Feature", "properties": {"norad_id": 66598, "name": "STARLINK-35981", "group": "last-30-days", "lat": 21.830776284367943, "lon": -7.22805487971386, "alt_km": 412.25830008545654, "timestamp": "2025-12-11T18:59:44.810918+00:00", "meta": {"OBJECT_NAME": "STARLINK-35981", "OBJECT_ID": "2025-270L", "EPOCH": "2025-12-11T06:00:02.999808", "MEAN_MOTION": 15.50694343, "ECCENTRICITY": 0.00018737, "INCLINATION": 42.9998, "RA_OF_ASC_NODE": 201.4008, "ARG_OF_PERICENTER": 251.7311, "MEAN_ANOMALY": 109.0672, "EPHEMERIS_TYPE": 0, "CLASSIFICATION_TYPE": "U", "NORAD_CAT_ID": 66598, "ELEMENT_SET_NO": 999, "REV_AT_EPOCH": 400, "BSTAR": -0.0033096449, "MEAN_MOTION_DOT": -0.00190644, "MEAN_MOTION_DDOT": 0}, "tle": {"line1": "1 66598U 25270L   25345.25003472 -.00190644  00000+0 -33096-2 0  9990", "line2": "2 66598  42.9998 201.4008 0001873 251.7311 109.0672 15.50694343  4000"}}, "geometry": {"type": "Point", "coordinates": [-7.22805487971386, 21.830776284367943]}}]}